{
  "type": "FeatureCollection",
  "features": [
    {
      "type": "Feature",
      "properties": {
        "norad_id": 37238,
        "name": "INTELSAT 17 (IS-17)",
        "group": "intelsat",
        "lat": 0.008530838660574493,
        "lon": 111.71475215330564,
        "alt_km": 35794.87669778552,
        "timestamp": "2025-12-10T21:43:21.754320+00:00",
        "meta_object_name": "INTELSAT 17 (IS-17)",
        "meta_object_id": "2010-065B",
        "meta_epoch": "2025-12-10T08:41:38.596992",
        "meta_mean_motion": 1.00272645,
        "meta_eccentricity": 0.00024677,
        "meta_inclination": 0.013,
        "meta_ra_of_asc_node": 291.2623,
        "meta_arg_of_pericenter": 330.6485,
        "meta_mean_anomaly": 13.8548,
        "meta_ephemeris_type": 0,
        "meta_classification_type": "U",
        "meta_norad_cat_id": 37238,
        "meta_element_set_no": 999,
        "meta_rev_at_epoch": 5135,
        "meta_bstar": 0,
        "meta_mean_motion_dot": 2e-08,
        "meta_mean_motion_ddot": 0,
        "tle_line1": "1 37238U 10065B   25344.36225228  .00000002  00000+0  00000+0 0  9993",
        "tle_line2": "2 37238   0.0130 291.2623 0002467 330.6485  13.8548  1.00272645 51352"
      },
      "geometry": {
        "type": "Point",
        "coordinates": [
          111.71475215330564,
          0.008530838660574493
        ]
      }
    },
    {
      "type": "Feature",
      "properties": {
        "norad_id": 37392,
        "name": "INTELSAT 28 (IS-28)",
        "group": "intelsat",
        "lat": -1.2382785830527436,
        "lon": 14.062997069234454,
        "alt_km": 35791.928160945135,
        "timestamp": "2025-12-10T21:43:21.754332+00:00",
        "meta_object_name": "INTELSAT 28 (IS-28)",
        "meta_object_id": "2011-016A",
        "meta_epoch": "2025-12-10T03:07:08.031648",
        "meta_mean_motion": 1.00272193,
        "meta_eccentricity": 0.00039485,
        "meta_inclination": 1.3181,
        "meta_ra_of_asc_node": 85.0885,
        "meta_arg_of_pericenter": 178.8995,
        "meta_mean_anomaly": 190.2073,
        "meta_ephemeris_type": 0,
        "meta_classification_type": "U",
        "meta_norad_cat_id": 37392,
        "meta_element_set_no": 999,
        "meta_rev_at_epoch": 5139,
        "meta_bstar": 0,
        "meta_mean_motion_dot": -2.21e-06,
        "meta_mean_motion_ddot": 0,
        "tle_line1": "1 37392U 11016A   25344.12995407 -.00000221  00000+0  00000+0 0  9992",
        "tle_line2": "2 37392   1.3181  85.0885 0003948 178.8995 190.2073  1.00272193 51390"
      },
      "geometry": {
        "type": "Point",
        "coordinates": [
          14.062997069234454,
          -1.2382785830527436
        ]
      }
    },
    {
      "type": "Feature",
      "properties": {
        "norad_id": 37834,
        "name": "INTELSAT 18 (IS-18)",
        "group": "intelsat",
        "lat": -0.03518649836066447,
        "lon": -134.30768679456204,
        "alt_km": 35779.66060448822,
        "timestamp": "2025-12-10T21:43:21.754344+00:00",
        "meta_object_name": "INTELSAT 18 (IS-18)",
        "meta_object_id": "2011-056A",
        "meta_epoch": "2025-12-10T11:07:33.905568",
        "meta_mean_motion": 1.00271695,
        "meta_eccentricity": 0.000199,
        "meta_inclination": 0.0186,
        "meta_ra_of_asc_node": 326.5116,
        "meta_arg_of_pericenter": 299.5897,
        "meta_mean_anomaly": 160.2248,
        "meta_ephemeris_type": 0,
        "meta_classification_type": "U",
        "meta_norad_cat_id": 37834,
        "meta_element_set_no": 999,
        "meta_rev_at_epoch": 5191,
        "meta_bstar": 0,
        "meta_mean_motion_dot": 5.7e-07,
        "meta_mean_motion_ddot": 0,
        "tle_line1": "1 37834U 11056A   25344.46358687  .00000057  00000+0  00000+0 0  9993",
        "tle_line2": "2 37834   0.0186 326.5116 0001990 299.5897 160.2248  1.00271695 51914"
      },
      "geometry": {
        "type": "Point",
        "coordinates": [
          -134.30768679456204,
          -0.03518649836066447
        ]
      }
    },
    {
      "type": "Feature",
      "properties": {
        "norad_id": 38098,
        "name": "INTELSAT 22 (IS-22)",
        "group": "intelsat",
        "lat": 0.01612925006924115,
        "lon": 117.83566274501297,
        "alt_km": 35792.125848239375,
        "timestamp": "2025-12-10T21:43:21.754356+00:00",
        "meta_object_name": "INTELSAT 22 (IS-22)",
        "meta_object_id": "2012-011A",
        "meta_epoch": "2025-12-10T08:41:38.596992",
        "meta_mean_motion": 1.00274578,
        "meta_eccentricity": 0.00017435,
        "meta_inclination": 0.0026,
        "meta_ra_of_asc_node": 358.8456,
        "meta_arg_of_pericenter": 277.0782,
        "meta_mean_anomaly": 5.9524,
        "meta_ephemeris_type": 0,
        "meta_classification_type": "U",
        "meta_norad_cat_id": 38098,
        "meta_element_set_no": 999,
        "meta_rev_at_epoch": 529,
        "meta_bstar": 0,
        "meta_mean_motion_dot": -5.6e-07,
        "meta_mean_motion_ddot": 0,
        "tle_line1": "1 38098U 12011A   25344.36225228 -.00000056  00000+0  00000+0 0  9991",
        "tle_line2": "2 38098   0.0026 358.8456 0001743 277.0782   5.9524  1.00274578  5290"
      },
      "geometry": {
        "type": "Point",
        "coordinates": [
          117.83566274501297,
          0.01612925006924115
        ]
      }
    },
    {
      "type": "Feature",
      "properties": {
        "norad_id": 38356,
        "name": "INTELSAT 19 (IS-19)",
        "group": "intelsat",
        "lat": -0.022417773708993078,
        "lon": -148.3159332670607,
        "alt_km": 35777.69848759465,
        "timestamp": "2025-12-10T21:43:21.754368+00:00",
        "meta_object_name": "INTELSAT 19 (IS-19)",
        "meta_object_id": "2012-030A",
        "meta_epoch": "2025-12-10T10:59:58.648416",
        "meta_mean_motion": 1.00271943,
        "meta_eccentricity": 0.00034954,
        "meta_inclination": 0.0088,
        "meta_ra_of_asc_node": 333.7752,
        "meta_arg_of_pericenter": 293.6811,
        "meta_mean_anomaly": 142.9775,
        "meta_ephemeris_type": 0,
        "meta_classification_type": "U",
        "meta_norad_cat_id": 38356,
        "meta_element_set_no": 999,
        "meta_rev_at_epoch": 4855,
        "meta_bstar": 0,
        "meta_mean_motion_dot": -5.2e-07,
        "meta_mean_motion_ddot": 0,
        "tle_line1": "1 38356U 12030A   25344.45831769 -.00000052  00000+0  00000+0 0  9998",
        "tle_line2": "2 38356   0.0088 333.7752 0003495 293.6811 142.9775  1.00271943 48558"
      },
      "geometry": {
        "type": "Point",
        "coordinates": [
          -148.3159332670607,
          -0.022417773708993078
        ]
      }
    },
    {
      "type": "Feature",
      "properties": {
        "norad_id": 38740,
        "name": "INTELSAT 20 (IS-20)",
        "group": "intelsat",
        "lat": 0.002803669032351317,
        "lon": 114.18969911403948,
        "alt_km": 35782.668093432716,
        "timestamp": "2025-12-10T21:43:21.754380+00:00",
        "meta_object_name": "INTELSAT 20 (IS-20)",
        "meta_object_id": "2012-043A",
        "meta_epoch": "2025-12-10T13:41:17.221344",
        "meta_mean_motion": 1.00270844,
        "meta_eccentricity": 0.00027289,
        "meta_inclination": 0.0096,
        "meta_ra_of_asc_node": 91.4619,
        "meta_arg_of_pericenter": 93.9433,
        "meta_mean_anomaly": 167.9697,
        "meta_ephemeris_type": 0,
        "meta_classification_type": "U",
        "meta_norad_cat_id": 38740,
        "meta_element_set_no": 999,
        "meta_rev_at_epoch": 4885,
        "meta_bstar": 0,
        "meta_mean_motion_dot": -2e-07,
        "meta_mean_motion_ddot": 0,
        "tle_line1": "1 38740U 12043A   25344.57033821 -.00000020  00000+0  00000+0 0  9990",
        "tle_line2": "2 38740   0.0096  91.4619 0002728  93.9433 167.9697  1.00270844 48855"
      },
      "geometry": {
        "type": "Point",
        "coordinates": [
          114.18969911403948,
          0.002803669032351317
        ]
      }
    },
    {
      "type": "Feature",
      "properties": {
        "norad_id": 38749,
        "name": "INTELSAT 21 (IS-21)",
        "group": "intelsat",
        "lat": -0.012432023521482894,
        "lon": -12.269326048312035,
        "alt_km": 35786.72204681435,
        "timestamp": "2025-12-10T21:43:21.754391+00:00",
        "meta_object_name": "INTELSAT 21 (IS-21)",
        "meta_object_id": "2012-045A",
        "meta_epoch": "2025-12-10T03:59:38.770944",
        "meta_mean_motion": 1.00270223,
        "meta_eccentricity": 0.00021227,
        "meta_inclination": 0.0158,
        "meta_ra_of_asc_node": 47.3107,
        "meta_arg_of_pericenter": 209.6362,
        "meta_mean_anomaly": 184.11,
        "meta_ephemeris_type": 0,
        "meta_classification_type": "U",
        "meta_norad_cat_id": 38749,
        "meta_element_set_no": 999,
        "meta_rev_at_epoch": 4862,
        "meta_bstar": 0,
        "meta_mean_motion_dot": -2.82e-06,
        "meta_mean_motion_ddot": 0,
        "tle_line1": "1 38749U 12045A   25344.16642096 -.00000282  00000+0  00000+0 0  9996",
        "tle_line2": "2 38749   0.0158  47.3107 0002122 209.6362 184.1100  1.00270223 48626"
      },
      "geometry": {
        "type": "Point",
        "coordinates": [
          -12.269326048312035,
          -0.012432023521482894
        ]
      }
    }
  ]
}